NORAD_CAT_ID,OBJECT_NAME,OBJECT_TYPE,EPOCH,MEAN_MOTION,ECCENTRICITY,INCLINATION,RA_OF_ASC_NODE,ARG_OF_PERICENTER,MEAN_ANOMALY,BSTAR,MEAN_MOTION_DOT,MEAN_MOTION_DDOT,TLE_LINE0,TLE_LINE1,TLE_LINE2,SEMIMAJOR_AXIS,PERIOD,APOGEE,PERIGEE,DECAYED
50851.0,STARLINK-3314,PAYLOAD,2023-11-17 13:01:52,15.08837457,0.0001677,53.2174,4.075,110.1231,249.9941,5.6672e-05,6.14e-06,0.0,0 STARLINK-3314,1 50851U 22001BA  23321.54296803  .00000614  00000-0  56672-4 0  9993,2 50851  53.2174   4.0750 0001677 110.1231 249.9941 15.08837457102985,6917.888,95.438,540.913,538.593,0.0
50851.0,STARLINK-3314,PAYLOAD,2023-11-18 09:41:52,15.08845009,0.0001481,53.2184,0.211,90.0214,270.0947,9.157e-05,1.17e-05,0.0,0 STARLINK-3314,1 50851U 22001BA  23322.40408498  .00001170  00000-0  91570-4 0  9998,2 50851  53.2184   0.2110 0001481  90.0214 270.0947 15.08845009103113,6917.865,95.437,540.755,538.706,0.0
50851.0,STARLINK-3314,PAYLOAD,2023-11-18 19:14:12,15.08836363,0.0001471,53.2183,358.427,88.309,271.8071,0.00013644,1.884e-05,0.0,0 STARLINK-3314,1 50851U 22001BA  23322.80153000  .00001884  00000-0  13644-3 0  9995,2 50851  53.2183 358.4270 0001471  88.3090 271.8071 15.08836363104456,6917.892,95.438,540.774,538.739,0.0
50851.0,STARLINK-3314,PAYLOAD,2023-11-19 09:32:40,15.08842491,0.0001473,53.2187,355.753,92.3399,267.7762,9.4066e-05,1.21e-05,0.0,0 STARLINK-3314,1 50851U 22001BA  23323.39768723  .00001210  00000-0  94066-4 0  9995,2 50851  53.2187 355.7530 0001473  92.3399 267.7762 15.08842491103266,6917.873,95.437,540.757,538.719,0.0
50851.0,STARLINK-3314,PAYLOAD,2023-11-19 19:04:59,15.08839017,0.0001448,53.2184,353.9694,92.8749,267.2409,7.2362e-05,8.64e-06,0.0,0 STARLINK-3314,1 50851U 22001BA  23323.79512999  .00000864  00000-0  72362-4 0  9990,2 50851  53.2184 353.9694 0001448  92.8749 267.2409 15.08839017103320,6917.883,95.438,540.75,538.747,0.0
50851.0,STARLINK-3314,PAYLOAD,2023-11-20 09:23:27,15.08843181,0.0001483,53.2183,351.2932,91.9737,268.1425,6.3516e-05,7.23e-06,0.0,0 STARLINK-3314,1 50851U 22001BA  23324.39128774  .00000723  00000-0  63516-4 0  9996,2 50851  53.2183 351.2932 0001483  91.9737 268.1425 15.08843181104697,6917.871,95.437,540.762,538.71,0.0
50851.0,STARLINK-3314,PAYLOAD,2023-11-20 10:58:50,15.08849947,0.0001641,53.2185,350.9954,93.4118,266.7062,2.1966e-05,6.2e-07,0.0,0 STARLINK-3314,1 50851U 22001BA  23324.45752423  .00000062  00000-0  21966-4 0  9996,2 50851  53.2185 350.9954 0001641  93.4118 266.7062 15.08849947103422,6917.85,95.437,540.85,538.58,0.0
50851.0,STARLINK-3314,PAYLOAD,2023-11-20 18:55:45,15.08843821,0.0001448,53.2181,349.5073,83.8504,276.2653,8.2909e-05,1.032e-05,0.0,0 STARLINK-3314,1 50851U 22001BA  23324.78872632  .00001032  00000-0  82909-4 0  9999,2 50851  53.2181 349.5073 0001448  83.8504 276.2653 15.08843821103473,6917.869,95.437,540.735,538.732,0.0
50851.0,STARLINK-3314,PAYLOAD,2023-11-21 10:49:37,15.08844937,0.0001661,53.2187,346.5311,91.503,268.6152,6.5988e-05,7.62e-06,0.0,0 STARLINK-3314,1 50851U 22001BA  23325.45112660  .00000762  00000-0  65988-4 0  9999,2 50851  53.2187 346.5311 0001661  91.5030 268.6152 15.08844937104859,6917.865,95.437,540.879,538.581,0.0
50851.0,STARLINK-3314,PAYLOAD,2023-11-22 09:05:00,15.08850566,0.0001715,53.2177,342.3706,87.4235,272.6953,0.00018183,2.608e-05,0.0,0 STARLINK-3314,1 50851U 22001BA  23326.37848298  .00002608  00000-0  18183-3 0  9999,2 50851  53.2177 342.3706 0001715  87.4235 272.6953 15.08850566103714,6917.848,95.437,540.9,538.527,0.0
50851.0,STARLINK-3314,PAYLOAD,2023-11-23 00:58:52,15.08842953,0.0001785,53.2183,339.3964,95.156,264.9636,0.00012918,1.769e-05,0.0,0 STARLINK-3314,1 50851U 22001BA  23327.04088708  .00001769  00000-0  12918-3 0  9993,2 50851  53.2183 339.3964 0001785  95.1560 264.9636 15.08842953105093,6917.871,95.437,540.971,538.502,0.0
50851.0,STARLINK-3314,PAYLOAD,2023-11-23 07:20:25,15.08839142,0.0001928,53.2178,338.2096,79.9399,280.181,0.00016507,2.34e-05,0.0,0 STARLINK-3314,1 50851U 22001BA  23327.30584978  .00002340  00000-0  16507-3 0  9996,2 50851  53.2178 338.2096 0001928  79.9399 280.1810 15.08839142103852,6917.883,95.438,541.082,538.414,0.0
50851.0,STARLINK-3314,PAYLOAD,2023-11-24 04:00:26,15.08833863,0.0001889,53.2182,334.3418,99.1596,260.961,-0.00010488,-1.957e-05,0.0,0 STARLINK-3314,1 50851U 22001BA  23328.16697352 -.00001957  00000-0 -10488-3 0  9999,2 50851  53.2182 334.3418 0001889  99.1596 260.9610 15.08833863105266,6917.899,95.438,541.071,538.457,0.0
50851.0,STARLINK-3314,PAYLOAD,2023-11-24 10:21:58,15.08840609,0.0001691,53.2184,333.1487,116.3941,243.7225,-9.0526e-05,-1.729e-05,0.0,0 STARLINK-3314,1 50851U 22001BA  23328.43193222 -.00001729  00000-0 -90526-4 0  9995,2 50851  53.2184 333.1487 0001691 116.3941 243.7225 15.08840609104028,6917.879,95.438,540.913,538.574,0.0
50851.0,STARLINK-3314,PAYLOAD,2023-11-25 03:51:13,15.08843979,0.0001492,53.217,329.8799,93.7334,266.3829,7.3331e-05,8.79e-06,0.0,0 STARLINK-3314,1 50851U 22001BA  23329.16056952  .00000879  00000-0  73331-4 0  9992,2 50851  53.2170 329.8799 0001492  93.7334 266.3829 15.08843979105412,6917.868,95.437,540.765,538.701,0.0
50851.0,STARLINK-3314,PAYLOAD,2023-11-25 05:26:36,15.08846156,0.0001524,53.2173,329.5826,95.2575,264.8591,9.6297e-05,1.245e-05,0.0,0 STARLINK-3314,1 50851U 22001BA  23329.22680837  .00001245  00000-0  96297-4 0  9998,2 50851  53.2173 329.5826 0001524  95.2575 264.8591 15.08846156104141,6917.862,95.437,540.781,538.672,0.0
50851.0,STARLINK-3314,PAYLOAD,2023-11-26 05:17:22,15.08855631,0.0001736,53.2177,325.1256,102.9389,257.1797,0.00032425,4.878e-05,0.0,0 STARLINK-3314,1 50851U 22001BA  23330.22040411  .00004878  00000-0  32425-3 0  9995,2 50851  53.2177 325.1256 0001736 102.9389 257.1797 15.08855631105577,6917.833,95.437,540.899,538.497,0.0
50851.0,STARLINK-3314,PAYLOAD,2023-11-27 03:32:48,15.08824107,0.0001905,53.2178,320.961,112.2044,247.9151,-0.00022594,-3.881e-05,0.0,0 STARLINK-3314,1 50851U 22001BA  23331.14778417 -.00003881  00000-0 -22594-3 0  9992,2 50851  53.2178 320.9610 0001905 112.2044 247.9151 15.08824107105716,6917.929,95.439,541.112,538.476,0.0
50851.0,STARLINK-3314,PAYLOAD,2023-11-27 08:18:58,15.08810772,0.0001639,53.2178,320.0682,99.7431,260.3747,-0.0003826,-6.367e-05,0.0,0 STARLINK-3314,1 50851U 22001BA  23331.34651314 -.00006367  00000-0 -38260-3 0  9999,2 50851  53.2178 320.0682 0001639  99.7431 260.3747 15.08810772105745,6917.97,95.439,540.969,538.701,0.0
50851.0,STARLINK-3314,PAYLOAD,2023-11-27 22:37:26,15.0882463,0.0001782,53.2179,317.3899,97.1847,262.9347,-0.00021317,-3.678e-05,0.0,0 STARLINK-3314,1 50851U 22001BA  23331.94267048 -.00003678  00000-0 -21317-3 0  9999,2 50851  53.2179 317.3899 0001782  97.1847 262.9347 15.08824630105839,6917.927,95.439,541.025,538.56,0.0
50851.0,STARLINK-3314,PAYLOAD,2023-11-28 06:34:21,15.08842694,0.0001787,53.2174,315.9049,92.2075,267.9122,0.00013901,1.925e-05,0.0,0 STARLINK-3314,1 50851U 22001BA  23332.27386493  .00001925  00000-0  13901-3 0  9993,2 50851  53.2174 315.9049 0001787  92.2075 267.9122 15.08842694105880,6917.872,95.437,540.973,538.501,0.0
50851.0,STARLINK-3314,PAYLOAD,2023-11-29 08:00:31,15.08883405,0.0001834,53.2176,311.1411,88.6957,271.4245,0.0010052,0.00015765,0.0,0 STARLINK-3314,1 50851U 22001BA  23333.33369944  .00015765  00000-0  10052-2 0  9993,2 50851  53.2176 311.1411 0001834  88.6957 271.4245 15.08883405106044,6917.748,95.435,540.881,538.344,0.0
50851.0,STARLINK-3314,PAYLOAD,2023-11-30 03:05:09,15.08846319,0.0001864,53.2162,307.5871,81.08,279.0403,0.00016568,2.35e-05,0.0,0 STARLINK-3314,1 50851U 22001BA  23334.12858561  .00002350  00000-0  16568-3 0  9994,2 50851  53.2162 307.5871 0001864  81.0800 279.0403 15.08846319106161,6917.861,95.437,541.016,538.437,0.0
50851.0,STARLINK-3314,PAYLOAD,2023-12-01 04:31:19,15.08849153,0.0001829,53.2173,302.8088,100.325,259.7948,0.00063605,9.852e-05,0.0,0 STARLINK-3314,1 50851U 22001BA  23335.18842454  .00009852  00000-0  63605-3 0  9993,2 50851  53.2173 302.8088 0001829 100.3250 259.7948 15.08849153106322,6917.852,95.437,540.983,538.452,0.0
50851.0,STARLINK-3314,PAYLOAD,2023-12-02 07:32:51,15.08901172,0.0002144,53.2185,297.7593,106.3393,253.7835,0.0020563,0.00032645,0.0,0 STARLINK-3314,1 50851U 22001BA  23336.31448739  .00032645  00000-0  20563-2 0  9998,2 50851  53.2185 297.7593 0002144 106.3393 253.7835 15.08901172106490,6917.693,95.434,541.042,538.075,0.0
50851.0,STARLINK-3314,PAYLOAD,2023-12-03 02:37:30,15.08825864,0.0002061,53.2173,294.1939,110.4643,249.6571,-0.00047499,-7.837e-05,0.0,0 STARLINK-3314,1 50851U 22001BA  23337.10938019 -.00007837  00000-0 -47499-3 0  9996,2 50851  53.2173 294.1939 0002061 110.4643 249.6571 15.08825864106612,6917.924,95.438,541.214,538.363,0.0
50851.0,STARLINK-3314,PAYLOAD,2023-12-03 05:48:16,15.08830606,0.0001856,53.217,293.6005,104.4633,255.6565,-0.00022958,-3.939e-05,0.0,0 STARLINK-3314,1 50851U 22001BA  23337.24186215 -.00003939  00000-0 -22958-3 0  9996,2 50851  53.2170 293.6005 0001856 104.4633 255.6565 15.08830606105350,6917.909,95.438,541.058,538.49,0.0
50851.0,STARLINK-3314,PAYLOAD,2023-12-03 10:34:26,15.088326,0.0001875,53.2171,292.7102,104.9804,255.1396,-1.9269e-05,-5.95e-06,0.0,0 STARLINK-3314,1 50851U 22001BA  23337.44058377 -.00000595  00000-0 -19269-4 0  9992,2 50851  53.2171 292.7102 0001875 104.9804 255.1396 15.08832600106663,6917.903,95.438,541.065,538.471,0.0
50851.0,STARLINK-3314,PAYLOAD,2023-12-04 04:03:41,15.08846426,0.000175,53.2174,289.4425,81.9104,278.2087,0.00113,0.00017745,0.0,0 STARLINK-3314,1 50851U 22001BA  23338.16923049  .00017745  00000-0  11300-2 0  9998,2 50851  53.2174 289.4425 0001750  81.9104 278.2087 15.08846426106772,6917.861,95.437,540.936,538.515,0.0
50851.0,STARLINK-3314,PAYLOAD,2023-12-05 02:19:05,15.08850605,0.0001935,53.218,285.2813,103.7151,256.4056,0.00039929,6.074e-05,0.0,0 STARLINK-3314,1 50851U 22001BA  23339.09658745  .00006074  00000-0  39929-3 0  9990,2 50851  53.2180 285.2813 0001935 103.7151 256.4056 15.08850605106918,6917.848,95.437,541.052,538.374,0.0
